[{"OBJECT_NAME":"KUIPER-00062","OBJECT_ID":"2025-134Y","EPOCH":"2026-03-09T15:11:13.430112","MEAN_MOTION":14.79751621,"ECCENTRICITY":3.58e-5,"INCLINATION":51.8965,"RA_OF_ASC_NODE":230.8718,"ARG_OF_PERICENTER":228.7271,"MEAN_ANOMALY":131.366,"EPHEMERIS_TYPE":0,"CLASSIFICATION_TYPE":"U","NORAD_CAT_ID":64522,"ELEMENT_SET_NO":999,"REV_AT_EPOCH":4010,"BSTAR":8.8484e-5,"MEAN_MOTION_DOT":4.51e-6,"MEAN_MOTION_DDOT":0},{"OBJECT_NAME":"THOR ABLESTAR DEB","OBJECT_ID":"1961-015DR","EPOCH":"2026-03-09T22:24:08.565408","MEAN_MOTION":14.84611176,"ECCENTRICITY":0.00216103,"INCLINATION":66.7426,"RA_OF_ASC_NODE":9.1053,"ARG_OF_PERICENTER":15.8914,"MEAN_ANOMALY":344.2885,"EPHEMERIS_TYPE":0,"CLASSIFICATION_TYPE":"U","NORAD_CAT_ID":351,"ELEMENT_SET_NO":999,"REV_AT_EPOCH":36299,"BSTAR":0.0018766507,"MEAN_MOTION_DOT":0.0001588,"MEAN_MOTION_DDOT":0}]
